[{"OBJECT_NAME":"STARLINK-36771","OBJECT_ID":"2026-036AA","EPOCH":"2026-03-09T21:12:59.756544","MEAN_MOTION":15.82140204,"ECCENTRICITY":0.00021017,"INCLINATION":42.9991,"RA_OF_ASC_NODE":248.3706,"ARG_OF_PERICENTER":283.1571,"MEAN_ANOMALY":76.9066,"EPHEMERIS_TYPE":0,"CLASSIFICATION_TYPE":"U","NORAD_CAT_ID":67928,"ELEMENT_SET_NO":999,"REV_AT_EPOCH":370,"BSTAR":0.0017329139,"MEAN_MOTION_DOT":0.00383195,"MEAN_MOTION_DDOT":0},{"OBJECT_NAME":"DELTA 1 R\/B(2)","OBJECT_ID":"1967-094C","EPOCH":"2026-03-09T20:03:45.924480","MEAN_MOTION":3.22129385,"ECCENTRICITY":0.65474813,"INCLINATION":28.1292,"RA_OF_ASC_NODE":234.2352,"ARG_OF_PERICENTER":26.3423,"MEAN_ANOMALY":355.6907,"EPHEMERIS_TYPE":0,"CLASSIFICATION_TYPE":"U","NORAD_CAT_ID":2971,"ELEMENT_SET_NO":999,"REV_AT_EPOCH":55662,"BSTAR":0.0015565866,"MEAN_MOTION_DOT":3.426e-5,"MEAN_MOTION_DDOT":0}]
